SALSAT
1 46495U 20068K   24032.40739001  .00005869  00000+0  35720-3 0  9996
2 46495  97.8004 348.6766 0016375  63.7275 296.5634 15.10709159183645
RADFXSAT-2 (AO-109)
1 47311U 21002C   24032.15409655  .00093971  00000+0  96896-3 0  9996
2 47311  60.6711 245.5488 0025733  72.1827 288.2084 15.63815909169748
UVSQ-SAT
1 47438U 21006AB  24032.14158300  .00026886  00000+0  78834-3 0  9990
2 47438  97.3508  92.0756 0007678 357.1573   2.9626 15.35132437167630
LEDSAT
1 49069U 21073D   24032.64662132  .00011176  00000+0  52171-3 0  9996
2 49069  97.4554 105.1328 0022276  45.5514 314.7538 15.19776350135685
XW-3 (CAS-9)
1 50466U 21131B   24032.81836789  .00000745  00000+0  25391-3 0  9998
2 50466  98.5361 118.5389 0004578 161.4158 198.7198 14.39334212110388
TEVEL-3
1 50988U 22002E   24032.83505678  .00042207  00000+0  10377-2 0  9993
2 50988  97.4016 105.0246 0005411 133.4712 226.6985 15.40505583113918
TEVEL-8
1 50989U 22002F   24032.80062718  .00044952  00000+0  11084-2 0  9999
2 50989  97.4034 105.0726 0005358 132.0106 228.1598 15.40403082113901
TEVEL-5
1 50998U 22002Q   24032.79975327  .00049800  00000+0  11516-2 0  9993
2 50998  97.4010 105.7667 0006061 126.6188 233.5617 15.42314875113968
TEVEL-6
1 50999U 22002R   24032.79980171  .00048985  00000+0  11341-2 0  9996
2 50999  97.4008 105.7528 0006049 126.5840 233.5965 15.42283510113969
TEVEL-1
1 51013U 22002AF  24032.78926329  .00043360  00000+0  10691-2 0  9997
2 51013  97.4008 104.8746 0005264 132.5749 227.5942 15.40413124113908
TEVEL-7
1 51062U 22002CG  24032.79632599  .00044562  00000+0  10965-2 0  9994
2 51062  97.4028 105.0387 0005400 132.3412 227.8293 15.40468137113901
TEVEL-4
1 51063U 22002CH  24032.81593436  .00044732  00000+0  11063-2 0  9993
2 51063  97.4025 105.0047 0005342 131.9527 228.2175 15.40312420113906
TEVEL-2
1 51069U 22002CP  24032.83522507  .00042529  00000+0  10449-2 0  9991
2 51069  97.4013 104.9915 0005392 133.4363 226.7333 15.40524866113910
GREENCUBE
1 53106U 22080B   24030.91318460 -.00000003  00000+0  00000+0 0  9990
2 53106  70.1307 240.5663 0008315 134.1925 225.9418  6.42557763 36389
CYCLOPS (RS29S)
1 53373U 22096D   24032.71643521  .00234079  00000+0  13188-2 0  9997
2 53373  97.3916 310.9534 0006964 100.3240 259.8812 15.78514852 83291
MONITOR-1 (RS32S)
1 53374U 22096E   24032.69675590  .00159245  00000+0  12235-2 0  9999
2 53374  97.3871 309.8823 0006370  94.3068 265.8923 15.71540366 83237
KUZBASS-300 (RS34S)
1 53375U 22096F   24032.80897004  .00072341  00000+0  99372-3 0  9998
2 53375  97.3973 307.9405 0004537  81.7957 278.3813 15.57065290 83101
UTMN (RS23S)
1 53376U 22096G   24032.84242280  .00078842  00000+0  97909-3 0  9999
2 53376  97.3949 308.4706 0005020  86.6634 273.5197 15.59732232 83144
MIET-AIS (RS28S)
1 53377U 22096H   24032.80888520  .00058621  00000+0  89326-3 0  9996
2 53377  97.3991 307.5266 0004055  83.3883 276.7832 15.54293789 83077
KAI-1 (RS26S)
1 53378U 22096J   24032.85527890  .00040517  00000+0  74192-3 0  9992
2 53378  97.4036 306.4746 0003833  80.3012 279.8671 15.49217775 83007
ISOI (RS19S)
1 53381U 22096M   24032.85761885  .00066872  00000+0  96719-3 0  9991
2 53381  97.4006 308.1957 0002642  73.0137 287.1407 15.55695435 83127
CUBESX-HSE-2 (RS21S)
1 53383U 22096P   24032.81112572  .00079654  00000+0  10060-2 0  9998
2 53383  97.3960 308.6889 0002514  71.4671 288.6859 15.59292910 83154
SIREN (RS30S)
1 53384U 22096Q   24032.86671550  .00053408  00000+0  87412-3 0  9995
2 53384  97.4006 307.4700 0001913  48.7536 311.3881 15.52338228 83071
GEOSCAN-EDELVEIS (RS20S)
1 53385U 22096R   24032.68524924  .00428585  69893-4  15261-2 0  9992
2 53385  97.3866 312.4602 0005743 116.9175 243.2685 15.88874545 83424
CAS-5A (FO-118)
1 54684U 22167C   24032.86423764  .00019196  00000+0  84010-3 0  9997
2 54684  97.5857 175.5277 0011139 262.8300  97.1669 15.22038734 63518
STRATOSAT-TK 1 (RS52S)
1 57167U 23091B   24032.84271247  .00010172  00000+0  66502-3 0  9999
2 57167  97.6333  86.6309 0015741 222.9671 137.0329 15.07888760 32985
UMKA 1 (RS40S)
1 57172U 23091G   24032.84174893  .00004548  00000+0  31866-3 0  9999
2 57172  97.6330  86.3242 0016503 223.1863 136.8070 15.05616065 32967
CUBESX-HSE 3 (RS42S)
1 57178U 23091N   24032.81779138  .00006910  00000+0  47375-3 0  9992
2 57178  97.6380  86.4613 0017265 217.5942 142.4079 15.06232143 32966
MONITOR-4 (RS57S)
1 57182U 23091S   24032.83884935  .00006074  00000+0  42001-3 0  9993
2 57182  97.6354  86.4010 0017661 218.9793 141.0162 15.05954390 32964
MONITOR-2 (RS39S)
1 57184U 23091U   24032.82844313  .00004944  00000+0  34275-3 0  9998
2 57184  97.6368  86.5809 0013924 211.4867 148.5527 15.06005241 32977
SVYATOBOR 1 (RS60S)
1 57187U 23091X   24032.82476165  .00006347  00000+0  42855-3 0  9999
2 57187  97.6373  86.7427 0013533 209.0106 151.0371 15.06876804 32987
VIZARD-METEO (RS38S)
1 57189U 23091Z   24032.81263257  .00006872  00000+0  45335-3 0  9995
2 57189  97.6370  86.8914 0012425 205.8202 154.2407 15.07722874 32992
NANOZOND 1 (RS49S)
1 57190U 23091AA  24032.84979380  .00008788  00000+0  55859-3 0  9991
2 57190  97.6335  87.0742 0010961 211.3278 148.7299 15.09021789 33015
POLYTECH-UNIVERSE 3 (R*)
1 57191U 23091AB  24032.82333009  .00004847  00000+0  33677-3 0  9998
2 57191  97.6338  86.3423 0019197 230.3922 129.5610 15.05860948 32965
UTMN 2 (RS27S)
1 57203U 23091AP  24032.83613959  .00006840  00000+0  45467-3 0  9993
2 57203  97.6358  86.8590 0012920 207.1426 152.9128 15.07436300 32999
ARCCUBE 1 (RS25S)
1 57205U 23091AR  24032.82835168  .00011477  00000+0  71906-3 0  9991
2 57205  97.6316  87.0508 0011216 214.0875 145.9635 15.09472273 33019
KUZGTU 1 (RS47S)
1 57217U 23091AV  24032.81765427  .00006544  00000+0  44960-3 0  9992
2 57217  97.6356  86.3916 0017133 218.9315 141.0679 15.06173573 32963
HADES-D (SO-121)
1 58567U 23174CY  24032.18547923  .00022184  00000+0  11116-2 0  9996
2 58567  97.4716 108.8228 0014911 352.2035   7.8964 15.17278528 12937
